CTC1_L_00366001-01
1 10000U 22200ZX  26075.70033565  .00000000  00000+0  00000-0 0  9995
2 10000  85.0000   0.0000 0000000   0.0000   0.0000 13.29142335    10
CTC1_L_00366001-02
1 10001U 22299RZ  26075.70033565  .00000000  00000+0  00000-0 0  9994
2 10001  85.0000   0.0000 0000000   0.0000  90.0000 13.29142335    10
CTC1_L_00366001-03
1 10002U 26947Z   26075.70033565  .00000000  00000+0  00000-0 0  9999
2 10002  85.0000   0.0000 0000000   0.0000 180.0000 13.29142335    11
CTC1_L_00366001-04
1 10003U 25437VG  26075.70033565  .00000000  00000+0  00000-0 0  9993
2 10003  85.0000   0.0000 0000000   0.0000 270.0000 13.29142335    12
CTC1_L_00366002-01
1 10004U 22693DB  26075.70033565  .00000000  00000+0  00000-0 0  9995
2 10004  85.0000  12.0000 0000000   0.0000  12.0000 13.29142335    10
CTC1_L_00366002-02
1 10005U 26390NG  26075.70033565  .00000000  00000+0  00000-0 0  9994
2 10005  85.0000  12.0000 0000000   0.0000 102.0000 13.29142335    11
CTC1_L_00366002-03
1 10006U 26443CB  26075.70033565  .00000000  00000+0  00000-0 0  9994
2 10006  85.0000  12.0000 0000000   0.0000 192.0000 13.29142335    11
CTC1_L_00366002-04
1 10007U 22819LK  26075.70033565  .00000000  00000+0  00000-0 0  9998
2 10007  85.0000  12.0000 0000000   0.0000 282.0000 13.29142335    12
CTC1_L_00366003-01
1 10008U 22641C   26075.70033565  .00000000  00000+0  00000-0 0  9992
2 10008  85.0000  24.0000 0000000   0.0000  24.0000 13.29142335    10
CTC1_L_00366003-02
1 10009U 25885LM  26075.70033565  .00000000  00000+0  00000-0 0  9996
2 10009  85.0000  24.0000 0000000   0.0000 114.0000 13.29142335    11
CTC1_L_00366003-03
1 10010U 23141SV  26075.70033565  .00000000  00000+0  00000-0 0  9991
2 10010  85.0000  24.0000 0000000   0.0000 204.0000 13.29142335    13
CTC1_L_00366003-04
1 10011U 26722XH  26075.70033565  .00000000  00000+0  00000-0 0  9990
2 10011  85.0000  24.0000 0000000   0.0000 294.0000 13.29142335    13
CTC1_L_00366004-01
1 10012U 23858HZ  26075.70033565  .00000000  00000+0  00000-0 0  9998
2 10012  85.0000  36.0000 0000000   0.0000  36.0000 13.29142335    11
CTC1_L_00366004-02
1 10013U 23975N   26075.70033565  .00000000  00000+0  00000-0 0  9999
2 10013  85.0000  36.0000 0000000   0.0000 126.0000 13.29142335    12
CTC1_L_00366004-03
1 10014U 24137VM  26075.70033565  .00000000  00000+0  00000-0 0  9991
2 10014  85.0000  36.0000 0000000   0.0000 216.0000 13.29142335    13
CTC1_L_00366004-04
1 10015U 22291XG  26075.70033565  .00000000  00000+0  00000-0 0  9991
2 10015  85.0000  36.0000 0000000   0.0000 306.0000 13.29142335    14
CTC1_L_00366005-01
1 10016U 25741MC  26075.70033565  .00000000  00000+0  00000-0 0  9995
2 10016  85.0000  48.0000 0000000   0.0000  48.0000 13.29142335    11
CTC1_L_00366005-02
1 10017U 24420VM  26075.70033565  .00000000  00000+0  00000-0 0  9999
2 10017  85.0000  48.0000 0000000   0.0000 138.0000 13.29142335    12
CTC1_L_00366005-03
1 10018U 24116NF  26075.70033565  .00000000  00000+0  00000-0 0  9992
2 10018  85.0000  48.0000 0000000   0.0000 228.0000 13.29142335    13
CTC1_L_00366005-04
1 10019U 26156SM  26075.70033565  .00000000  00000+0  00000-0 0  9999
2 10019  85.0000  48.0000 0000000   0.0000 318.0000 13.29142335    14
CTC1_L_00366006-01
1 10020U 23414TG  26075.70033565  .00000000  00000+0  00000-0 0  9995
2 10020  85.0000  60.0000 0000000   0.0000  60.0000 13.29142335    14
CTC1_L_00366006-02
1 10021U 23558UX  26075.70033565  .00000000  00000+0  00000-0 0  9995
2 10021  85.0000  60.0000 0000000   0.0000 150.0000 13.29142335    15
CTC1_L_00366006-03
1 10022U 24156WJ  26075.70033565  .00000000  00000+0  00000-0 0  9991
2 10022  85.0000  60.0000 0000000   0.0000 240.0000 13.29142335    16
CTC1_L_00366006-04
1 10023U 24430GF  26075.70033565  .00000000  00000+0  00000-0 0  9997
2 10023  85.0000  60.0000 0000000   0.0000 330.0000 13.29142335    17
CTC1_L_00366007-01
1 10024U 24341VE  26075.70033565  .00000000  00000+0  00000-0 0  9999
2 10024  85.0000  72.0000 0000000   0.0000  72.0000 13.29142335    14
CTC1_L_00366007-02
1 10025U 22593DR  26075.70033565  .00000000  00000+0  00000-0 0  9997
2 10025  85.0000  72.0000 0000000   0.0000 162.0000 13.29142335    15
CTC1_L_00366007-03
1 10026U 24285MS  26075.70033565  .00000000  00000+0  00000-0 0  9998
2 10026  85.0000  72.0000 0000000   0.0000 252.0000 13.29142335    16
CTC1_L_00366007-04
1 10027U 22576CR  26075.70033565  .00000000  00000+0  00000-0 0  9990
2 10027  85.0000  72.0000 0000000   0.0000 342.0000 13.29142335    17
CTC1_L_00366008-01
1 10028U 24507PL  26075.70033565  .00000000  00000+0  00000-0 0  9997
2 10028  85.0000  84.0000 0000000   0.0000  84.0000 13.29142335    14
CTC1_L_00366008-02
1 10029U 22851TN  26075.70033565  .00000000  00000+0  00000-0 0  9998
2 10029  85.0000  84.0000 0000000   0.0000 174.0000 13.29142335    15
CTC1_L_00366008-03
1 10030U 23166ID  26075.70033565  .00000000  00000+0  00000-0 0  9990
2 10030  85.0000  84.0000 0000000   0.0000 264.0000 13.29142335    17
CTC1_L_00366008-04
1 10031U 23130LC  26075.70033565  .00000000  00000+0  00000-0 0  9992
2 10031  85.0000  84.0000 0000000   0.0000 354.0000 13.29142335    18
CTC1_L_00366009-01
1 10032U 22912NS  26075.70033565  .00000000  00000+0  00000-0 0  9990
2 10032  85.0000  96.0000 0000000   0.0000  96.0000 13.29142335    15
CTC1_L_00366009-02
1 10033U 24830WF  26075.70033565  .00000000  00000+0  00000-0 0  9992
2 10033  85.0000  96.0000 0000000   0.0000 186.0000 13.29142335    16
CTC1_L_00366009-03
1 10034U 26198QC  26075.70033565  .00000000  00000+0  00000-0 0  9992
2 10034  85.0000  96.0000 0000000   0.0000 276.0000 13.29142335    17
CTC1_L_00366009-04
1 10035U 26092HM  26075.70033565  .00000000  00000+0  00000-0 0  9996
2 10035  85.0000  96.0000 0000000   0.0000   6.0000 13.29142335    19
CTC1_L_00366010-01
1 10036U 22092IT  26075.70033565  .00000000  00000+0  00000-0 0  9993
2 10036  85.0000 108.0000 0000000   0.0000 108.0000 13.29142335    17
CTC1_L_00366010-02
1 10037U 24021VO  26075.70033565  .00000000  00000+0  00000-0 0  9998
2 10037  85.0000 108.0000 0000000   0.0000 198.0000 13.29142335    17
CTC1_L_00366010-03
1 10038U 23623NO  26075.70033565  .00000000  00000+0  00000-0 0  9996
2 10038  85.0000 108.0000 0000000   0.0000 288.0000 13.29142335    18
CTC1_L_00366010-04
1 10039U 24495UC  26075.70033565  .00000000  00000+0  00000-0 0  9995
2 10039  85.0000 108.0000 0000000   0.0000  18.0000 13.29142335    10
CTC1_L_00366011-01
1 10040U 26351IW  26075.70033565  .00000000  00000+0  00000-0 0  9990
2 10040  85.0000 120.0000 0000000   0.0000 120.0000 13.29142335    10
CTC1_L_00366011-02
1 10041U 26954DC  26075.70033565  .00000000  00000+0  00000-0 0  9990
2 10041  85.0000 120.0000 0000000   0.0000 210.0000 13.29142335    11
CTC1_L_00366011-03
1 10042U 26051RA  26075.70033565  .00000000  00000+0  00000-0 0  9999
2 10042  85.0000 120.0000 0000000   0.0000 300.0000 13.29142335    12
CTC1_L_00366011-04
1 10043U 22088XI  26075.70033565  .00000000  00000+0  00000-0 0  9996
2 10043  85.0000 120.0000 0000000   0.0000  30.0000 13.29142335    13
CTC1_L_00366012-01
1 10044U 25914DP  26075.70033565  .00000000  00000+0  00000-0 0  9998
2 10044  85.0000 132.0000 0000000   0.0000 132.0000 13.29142335    10
CTC1_L_00366012-02
1 10045U 26854AV  26075.70033565  .00000000  00000+0  00000-0 0  9993
2 10045  85.0000 132.0000 0000000   0.0000 222.0000 13.29142335    11
CTC1_L_00366012-03
1 10046U 23773HX  26075.70033565  .00000000  00000+0  00000-0 0  9991
2 10046  85.0000 132.0000 0000000   0.0000 312.0000 13.29142335    12
CTC1_L_00366012-04
1 10047U 26951AI  26075.70033565  .00000000  00000+0  00000-0 0  9993
2 10047  85.0000 132.0000 0000000   0.0000  42.0000 13.29142335    13
CTC1_L_00366013-01
1 10048U 25742LF  26075.70033565  .00000000  00000+0  00000-0 0  9991
2 10048  85.0000 144.0000 0000000   0.0000 144.0000 13.29142335    10
CTC1_L_00366013-02
1 10049U 23191WX  26075.70033565  .00000000  00000+0  00000-0 0  9998
2 10049  85.0000 144.0000 0000000   0.0000 234.0000 13.29142335    11
CTC1_L_00366013-03
1 10050U 23710MG  26075.70033565  .00000000  00000+0  00000-0 0  9997
2 10050  85.0000 144.0000 0000000   0.0000 324.0000 13.29142335    13
CTC1_L_00366013-04
1 10051U 25067NY  26075.70033565  .00000000  00000+0  00000-0 0  9995
2 10051  85.0000 144.0000 0000000   0.0000  54.0000 13.29142335    14
CTC1_L_00366014-01
1 10052U 23614MW  26075.70033565  .00000000  00000+0  00000-0 0  9992
2 10052  85.0000 156.0000 0000000   0.0000 156.0000 13.29142335    11
CTC1_L_00366014-02
1 10053U 26242JT  26075.70033565  .00000000  00000+0  00000-0 0  9993
2 10053  85.0000 156.0000 0000000   0.0000 246.0000 13.29142335    12
CTC1_L_00366014-03
1 10054U 24953UP  26075.70033565  .00000000  00000+0  00000-0 0  9991
2 10054  85.0000 156.0000 0000000   0.0000 336.0000 13.29142335    13
CTC1_L_00366014-04
1 10055U 25716DL  26075.70033565  .00000000  00000+0  00000-0 0  9990
2 10055  85.0000 156.0000 0000000   0.0000  66.0000 13.29142335    14
CTC1_L_00366015-01
1 10056U 22745RL  26075.70033565  .00000000  00000+0  00000-0 0  9990
2 10056  85.0000 168.0000 0000000   0.0000 168.0000 13.29142335    11
CTC1_L_00366015-02
1 10057U 24092VL  26075.70033565  .00000000  00000+0  00000-0 0  9998
2 10057  85.0000 168.0000 0000000   0.0000 258.0000 13.29142335    12
CTC1_L_00366015-03
1 10058U 26948AX  26075.70033565  .00000000  00000+0  00000-0 0  9991
2 10058  85.0000 168.0000 0000000   0.0000 348.0000 13.29142335    13
CTC1_L_00366015-04
1 10059U 26835L   26075.70033565  .00000000  00000+0  00000-0 0  9997
2 10059  85.0000 168.0000 0000000   0.0000  78.0000 13.29142335    14
CTC1_L_00366016-01
1 10060U 26606NV  26075.70033565  .00000000  00000+0  00000-0 0  9995
2 10060  85.0000 180.0000 0000000   0.0000 180.0000 13.29142335    14
CTC1_L_00366016-02
1 10061U 24661N   26075.70033565  .00000000  00000+0  00000-0 0  9995
2 10061  85.0000 180.0000 0000000   0.0000 270.0000 13.29142335    15
